NORAD_CAT_ID,OBJECT_NAME,OBJECT_TYPE,EPOCH,MEAN_MOTION,ECCENTRICITY,INCLINATION,RA_OF_ASC_NODE,ARG_OF_PERICENTER,MEAN_ANOMALY,BSTAR,MEAN_MOTION_DOT,MEAN_MOTION_DDOT,TLE_LINE0,TLE_LINE1,TLE_LINE2,SEMIMAJOR_AXIS,PERIOD,APOGEE,PERIGEE,DECAYED
53564.0,STARLINK-4577,PAYLOAD,2023-01-23 00:54:50,15.08828572,0.0001231999999999,53.2212,139.2506,77.3762,282.7368,4.8598000000000005e-05,4.85e-06,0.0,0 STARLINK-4577,1 53564U 22101AP  23023.03808009  .00000485  00000-0  48598-4 0  9992,2 53564  53.2212 139.2506 0001232  77.3762 282.7368 15.08828572 24093,6917.915,95.438,540.633,538.928,0.0
53564.0,STARLINK-4577,PAYLOAD,2023-01-24 11:53:18,15.08846198,0.0001134,53.2186,132.7115,66.2712,293.8399,2.0003e-05,3.1e-07,0.0,0 STARLINK-4577,1 53564U 22101AP  23024.49535558  .00000031  00000-0  20003-4 0  9997,2 53564  53.2186 132.7115 0001134  66.2712 293.8399 15.08846198 24316,6917.861,95.437,540.511,538.942,0.0
53564.0,STARLINK-4577,PAYLOAD,2023-01-25 11:44:06,15.08829962,0.0001034,53.2187,128.2511,73.7729,286.3377,1.5422999999999998e-05,-4.2e-07,0.0,0 STARLINK-4577,1 53564U 22101AP  23025.48896644 -.00000042  00000-0  15423-4 0  9996,2 53564  53.2187 128.2511 0001034  73.7729 286.3377 15.08829962 24466,6917.911,95.438,540.491,539.061,0.0
53564.0,STARLINK-4577,PAYLOAD,2023-01-25 13:19:29,15.08836503,0.000109,53.2185,127.9516,98.009,262.1026,-1.8184e-06,-3.17e-06,0.0,0 STARLINK-4577,1 53564U 22101AP  23025.55520258 -.00000317  00000-0 -18184-5 0  9993,2 53564  53.2185 127.9516 0001090  98.0090 262.1026 15.08836503 24471,6917.891,95.438,540.51,539.002,0.0
53564.0,STARLINK-4577,PAYLOAD,2023-01-26 11:34:52,15.08846026,0.0001092,53.2186,123.7885,103.9522,256.1592,-1.2748e-05,-4.91e-06,0.0,0 STARLINK-4577,1 53564U 22101AP  23026.48255784 -.00000491  00000-0 -12748-4 0  9997,2 53564  53.2186 123.7885 0001092 103.9522 256.1592 15.08846026 24611,6917.861999999999,95.437,540.482,538.972,0.0
53564.0,STARLINK-4577,PAYLOAD,2023-01-27 11:25:40,15.088346599999998,0.00011,53.219,119.3315,88.57,271.5418,3.1951999999999995e-05,2.21e-06,0.0,0 STARLINK-4577,1 53564U 22101AP  23027.47616468  .00000221  00000-0  31952-4 0  9994,2 53564  53.2190 119.3315 0001100  88.5700 271.5418 15.08834660 24766,6917.897,95.438,540.523,539.001,0.0
53564.0,STARLINK-4577,PAYLOAD,2023-01-27 13:01:03,15.0883845,0.0001075,53.2187,119.0312,104.5165,255.5947,3.9281e-05,3.37e-06,0.0,0 STARLINK-4577,1 53564U 22101AP  23027.54240162  .00000337  00000-0  39281-4 0  9997,2 53564  53.2187 119.0312 0001075 104.5165 255.5947 15.08838450 24772,6917.885,95.438,540.494,539.006,0.0
53564.0,STARLINK-4577,PAYLOAD,2023-01-28 11:16:28,15.08833935,0.0001099,53.2185,114.8697,78.7841,281.3275,-7.7742e-05,-1.525e-05,0.0,0 STARLINK-4577,1 53564U 22101AP  23028.46977154 -.00001525  00000-0 -77742-4 0  9993,2 53564  53.2185 114.8697 0001099  78.7841 281.3275 15.08833935 24918,6917.899,95.438,540.524,539.004,0.0
53564.0,STARLINK-4577,PAYLOAD,2023-01-28 22:24:09,15.0883719,0.0001027,53.2185,112.7883,86.6387,273.4723,2.2906e-05,7.7e-07,0.0,0 STARLINK-4577,1 53564U 22101AP  23028.93344655  .00000077  00000-0  22906-4 0  9990,2 53564  53.2185 112.7883 0001027  86.6387 273.4723 15.08837190 24980,6917.889,95.438,540.464,539.044,0.0
53564.0,STARLINK-4577,PAYLOAD,2023-01-29 11:07:14,15.08848117,9.95e-05,53.2187,110.4091,90.4596,269.651,3.6755e-05,2.97e-06,0.0,0 STARLINK-4577,1 53564U 22101AP  23029.46335901  .00000297  00000-0  36755-4 0  9994,2 53564  53.2187 110.4091 0000995  90.4596 269.6510 15.08848117 25068,6917.856,95.437,540.409,539.032,0.0
53564.0,STARLINK-4577,PAYLOAD,2023-01-29 22:14:56,15.08839515,0.0001291,53.2197,108.3271,83.391,276.7229,-6.7511e-05,-1.362e-05,0.0,0 STARLINK-4577,1 53564U 22101AP  23029.92704729 -.00001362  00000-0 -67511-4 0  9993,2 53564  53.2197 108.3271 0001291  83.3910 276.7229 15.08839515 25132,6917.882,95.438,540.64,538.854,0.0
53564.0,STARLINK-4577,PAYLOAD,2023-01-30 04:36:29,15.08829608,0.0001591,53.2183,107.1387,81.3658,278.7514,4.0924e-05,3.63e-06,0.0,0 STARLINK-4577,1 53564U 22101AP  23030.19201199  .00000363  00000-0  40924-4 0  9994,2 53564  53.2183 107.1387 0001591  81.3658 278.7514 15.08829608 25177,6917.912,95.438,540.878,538.677,0.0
53564.0,STARLINK-4577,PAYLOAD,2023-01-30 10:58:02,15.08826422,0.000131,53.2188,105.9492,83.3841,276.73,2.1532e-07,-2.84e-06,0.0,0 STARLINK-4577,1 53564U 22101AP  23030.45697645 -.00000284  00000-0  21532-6 0  9997,2 53564  53.2188 105.9492 0001310  83.3841 276.7300 15.08826422 25217,6917.922,95.438,540.693,538.881,0.0
53564.0,STARLINK-4577,PAYLOAD,2023-01-30 22:05:44,15.08836095,0.0001408,53.2201,103.8682,85.6189,274.4964,3.1601e-06,-2.38e-06,0.0,0 STARLINK-4577,1 53564U 22101AP  23030.92065207 -.00000238  00000-0  31601-5 0  9998,2 53564  53.2201 103.8682 0001408  85.6189 274.4964 15.08836095 25284,6917.892,95.438,540.731,538.783,0.0
53564.0,STARLINK-4577,PAYLOAD,2023-01-31 10:48:48,15.0884718,0.0001395,53.2204,101.4897,83.8357,276.2794,-1.4016e-05,-5.11e-06,0.0,0 STARLINK-4577,1 53564U 22101AP  23031.45056545 -.00000511  00000-0 -14016-4 0  9997,2 53564  53.2204 101.4897 0001395  83.8357 276.2794 15.08847180 25368,6917.858,95.437,540.688,538.758,0.0
53564.0,STARLINK-4577,PAYLOAD,2023-01-31 13:59:34,15.08850934,0.000143,53.2196,100.8941,87.0222,273.0934,1.494e-05,-5e-07,0.0,0 STARLINK-4577,1 53564U 22101AP  23031.58304114 -.00000050  00000-0  14940-4 0  9992,2 53564  53.2196 100.8941 0001430  87.0222 273.0934 15.08850934 25382,6917.847,95.437,540.701,538.723,0.0
53564.0,STARLINK-4577,PAYLOAD,2023-02-01 10:39:35,15.08841237,0.0001538,53.2188,97.0275,103.2724,256.844,6.2398e-05,7.05e-06,0.0,0 STARLINK-4577,1 53564U 22101AP  23032.44416290  .00000705  00000-0  62398-4 0  9993,2 53564  53.2188  97.0275 0001538 103.2724 256.8440 15.08841237 25519,6917.877,95.437,540.806,538.678,0.0
53564.0,STARLINK-4577,PAYLOAD,2023-02-02 04:08:50,15.08836481,0.0001511,53.2176,93.7567,96.7174,263.399,-7.3312e-05,-1.454e-05,0.0,0 STARLINK-4577,1 53564U 22101AP  23033.17281216 -.00001454  00000-0 -73312-4 0  9994,2 53564  53.2176  93.7567 0001511  96.7174 263.3990 15.08836481 25629,6917.891,95.438,540.801,538.711,0.0
53564.0,STARLINK-4577,PAYLOAD,2023-02-02 13:41:09,15.08838086,0.0001495,53.2188,91.9712,115.9304,244.1843,-7.1385e-05,-1.424e-05,0.0,0 STARLINK-4577,1 53564U 22101AP  23033.57025052 -.00001424  00000-0 -71385-4 0  9997,2 53564  53.2188  91.9712 0001495 115.9304 244.1843 15.08838086 25687,6917.886,95.438,540.785,538.717,0.0
53564.0,STARLINK-4577,PAYLOAD,2023-02-03 08:45:47,15.0883949,0.0001321,53.219,88.4028,114.8751,245.2379,-5.7588e-05,-1.204e-05,0.0,0 STARLINK-4577,1 53564U 22101AP  23034.36513032 -.00001204  00000-0 -57588-4 0  9990,2 53564  53.2190  88.4028 0001321 114.8751 245.2379 15.08839490 25803,6917.882,95.438,540.661,538.833,0.0
53564.0,STARLINK-4577,PAYLOAD,2023-02-04 10:11:57,15.08840389,0.0001175,53.2189,83.6461,101.4543,258.6581,7.3961e-05,8.89e-06,0.0,0 STARLINK-4577,1 53564U 22101AP  23035.42496788  .00000889  00000-0  73961-4 0  9995,2 53564  53.2189  83.6461 0001175 101.4543 258.6581 15.08840389 25966,6917.879,95.438,540.557,538.931,0.0
53564.0,STARLINK-4577,PAYLOAD,2023-02-04 19:44:16,15.08835451,0.0001194,53.2193,81.8634,91.8245,268.2884,-1.8654e-05,-5.85e-06,0.0,0 STARLINK-4577,1 53564U 22101AP  23035.82241530 -.00000585  00000-0 -18654-4 0  9995,2 53564  53.2193  81.8634 0001194  91.8245 268.2884 15.08835451 26020,6917.894,95.438,540.585,538.933,0.0
53564.0,STARLINK-4577,PAYLOAD,2023-02-05 08:27:22,15.08832357,0.0001308,53.2209,79.4858,108.1022,252.0113,-3.6356e-05,-8.66e-06,0.0,0 STARLINK-4577,1 53564U 22101AP  23036.35234019 -.00000866  00000-0 -36356-4 0  9999,2 53564  53.2209  79.4858 0001308 108.1022 252.0113 15.08832357 26108,6917.904,95.438,540.674,538.864,0.0
53564.0,STARLINK-4577,PAYLOAD,2023-02-05 19:35:03,15.08836598,0.000123,53.2212,77.4051,102.3141,257.7988,-3.7965e-06,-3.48e-06,0.0,0 STARLINK-4577,1 53564U 22101AP  23036.81601771 -.00000348  00000-0 -37965-5 0  9996,2 53564  53.2212  77.4051 0001230 102.3141 257.7988 15.08836598 26177,6917.891,95.438,540.607,538.905,0.0
53564.0,STARLINK-4577,PAYLOAD,2023-02-06 03:31:59,15.08838563,0.0001176,53.2209,75.9169,102.1133,257.9991,-2.7023e-05,-7.18e-06,0.0,0 STARLINK-4577,1 53564U 22101AP  23037.14721786 -.00000718  00000-0 -27023-4 0  9996,2 53564  53.2209  75.9169 0001176 102.1133 257.9991 15.08838563 26220,6917.885,95.438,540.563,538.936,0.0
53564.0,STARLINK-4577,PAYLOAD,2023-02-06 11:28:54,15.08846813,0.0001203,53.2206,74.4294,98.2229,261.89,2.9302e-05,1.79e-06,0.0,0 STARLINK-4577,1 53564U 22101AP  23037.47841061  .00000179  00000-0  29302-4 0  9992,2 53564  53.2206  74.4294 0001203  98.2229 261.8900 15.08846813 26278,6917.86,95.437,540.557,538.892,0.0
53564.0,STARLINK-4577,PAYLOAD,2023-02-06 19:25:50,15.08839068,0.0001243,53.2201,72.9416,93.0914,267.022,2.2715e-05,7.4e-07,0.0,0 STARLINK-4577,1 53564U 22101AP  23037.80961490  .00000074  00000-0  22715-4 0  9993,2 53564  53.2201  72.9416 0001243  93.0914 267.0220 15.08839068 26323,6917.883,95.438,540.608,538.888,0.0
53564.0,STARLINK-4577,PAYLOAD,2023-02-07 01:47:23,15.08833937,9.95e-05,53.2199,71.7522,95.5474,264.5632,9.1173e-05,1.163e-05,0.0,0 STARLINK-4577,1 53564U 22101AP  23038.07457496  .00001163  00000-0  91173-4 0  9993,2 53564  53.2199  71.7522 0000995  95.5474 264.5632 15.08833937 26367,6917.899,95.438,540.452,539.076,0.0
53564.0,STARLINK-4577,PAYLOAD,2023-02-07 11:19:41,15.08852038,0.0001121,53.2202,69.9693,81.7859,278.326,0.00011964,1.617e-05,0.0,0 STARLINK-4577,1 53564U 22101AP  23038.47200292  .00001617  00000-0  11964-3 0  9990,2 53564  53.2202  69.9693 0001121  81.7859 278.3260 15.08852038 26426,6917.844,95.437,540.484,538.933,0.0
53564.0,STARLINK-4577,PAYLOAD,2023-02-08 11:10:29,15.0883895,0.0001357,53.2193,65.5072,92.1861,267.9287,-5.0432e-05,-1.09e-05,0.0,0 STARLINK-4577,1 53564U 22101AP  23039.46561905 -.00001090  00000-0 -50432-4 0  9992,2 53564  53.2193  65.5072 0001357  92.1861 267.9287 15.08838950 26574,6917.884,95.438,540.687,538.81,0.0
